{
  "type": "FeatureCollection",
  "features": [
    {
      "type": "Feature",
      "properties": {
        "norad_id": 33972,
        "name": "COSMOS 2251 DEB",
        "group": "cosmos-2251-debris",
        "lat": 14.15672366851877,
        "lon": -13.684586853492025,
        "alt_km": 858.6362555362048,
        "timestamp": "2025-12-23T16:57:12.747972+00:00",
        "meta_object_name": "COSMOS 2251 DEB",
        "meta_object_id": "1993-036FF",
        "meta_epoch": "2025-12-22T11:54:25.691616",
        "meta_mean_motion": 14.36292058,
        "meta_eccentricity": 0.01238157,
        "meta_inclination": 73.9934,
        "meta_ra_of_asc_node": 172.696,
        "meta_arg_of_pericenter": 338.2339,
        "meta_mean_anomaly": 51.7728,
        "meta_ephemeris_type": 0,
        "meta_classification_type": "U",
        "meta_norad_cat_id": 33972,
        "meta_element_set_no": 999,
        "meta_rev_at_epoch": 87214,
        "meta_bstar": 0.0012268858,
        "meta_mean_motion_dot": 3.888e-05,
        "meta_mean_motion_ddot": 0,
        "tle_line1": "1 33972U 93036FF  25356.49613069  .00003888  00000+0  12269-2 0  9992",
        "tle_line2": "2 33972  73.9934 172.6960 0123815 338.2339  51.7728 14.36292058872145"
      },
      "geometry": {
        "type": "Point",
        "coordinates": [
          -13.684586853492025,
          14.15672366851877
        ]
      }
    },
    {
      "type": "Feature",
      "properties": {
        "norad_id": 33973,
        "name": "COSMOS 2251 DEB",
        "group": "cosmos-2251-debris",
        "lat": -72.75553478106639,
        "lon": 14.919694257202014,
        "alt_km": 715.5072097917109,
        "timestamp": "2025-12-23T16:57:12.747983+00:00",
        "meta_object_name": "COSMOS 2251 DEB",
        "meta_object_id": "1993-036FG",
        "meta_epoch": "2025-12-23T05:48:36.650304",
        "meta_mean_motion": 14.45401675,
        "meta_eccentricity": 0.00473849,
        "meta_inclination": 74.0086,
        "meta_ra_of_asc_node": 83.2841,
        "meta_arg_of_pericenter": 259.7782,
        "meta_mean_anomaly": 121.5691,
        "meta_ephemeris_type": 0,
        "meta_classification_type": "U",
        "meta_norad_cat_id": 33973,
        "meta_element_set_no": 999,
        "meta_rev_at_epoch": 88752,
        "meta_bstar": 0.00014130508,
        "meta_mean_motion_dot": 4.76e-06,
        "meta_mean_motion_ddot": 0,
        "tle_line1": "1 33973U 93036FG  25357.24209086  .00000476  00000+0  14131-3 0  9998",
        "tle_line2": "2 33973  74.0086  83.2841 0047384 259.7782 121.5691 14.45401675887526"
      },
      "geometry": {
        "type": "Point",
        "coordinates": [
          14.919694257202014,
          -72.75553478106639
        ]
      }
    },
    {
      "type": "Feature",
      "properties": {
        "norad_id": 33975,
        "name": "COSMOS 2251 DEB",
        "group": "cosmos-2251-debris",
        "lat": -64.62290373692942,
        "lon": -77.03207613931052,
        "alt_km": 815.0429909820514,
        "timestamp": "2025-12-23T16:57:12.747992+00:00",
        "meta_object_name": "COSMOS 2251 DEB",
        "meta_object_id": "1993-036FJ",
        "meta_epoch": "2025-12-23T05:28:56.671680",
        "meta_mean_motion": 14.00544623,
        "meta_eccentricity": 0.01909341,
        "meta_inclination": 73.8016,
        "meta_ra_of_asc_node": 66.0156,
        "meta_arg_of_pericenter": 197.2886,
        "meta_mean_anomaly": 162.1688,
        "meta_ephemeris_type": 0,
        "meta_classification_type": "U",
        "meta_norad_cat_id": 33975,
        "meta_element_set_no": 999,
        "meta_rev_at_epoch": 85976,
        "meta_bstar": 0.00048799465,
        "meta_mean_motion_dot": 8.23e-06,
        "meta_mean_motion_ddot": 0,
        "tle_line1": "1 33975U 93036FJ  25357.22843370  .00000823  00000+0  48799-3 0  9991",
        "tle_line2": "2 33975  73.8016  66.0156 0190934 197.2886 162.1688 14.00544623859761"
      },
      "geometry": {
        "type": "Point",
        "coordinates": [
          -77.03207613931052,
          -64.62290373692942
        ]
      }
    },
    {
      "type": "Feature",
      "properties": {
        "norad_id": 33980,
        "name": "COSMOS 2251 DEB",
        "group": "cosmos-2251-debris",
        "lat": -36.20581979918139,
        "lon": -129.39778273736408,
        "alt_km": 687.2797458564673,
        "timestamp": "2025-12-23T16:57:12.748003+00:00",
        "meta_object_name": "COSMOS 2251 DEB",
        "meta_object_id": "1993-036FP",
        "meta_epoch": "2025-12-23T04:41:52.102752",
        "meta_mean_motion": 14.58706263,
        "meta_eccentricity": 0.00280342,
        "meta_inclination": 74.0206,
        "meta_ra_of_asc_node": 39.4666,
        "meta_arg_of_pericenter": 182.7708,
        "meta_mean_anomaly": 234.325,
        "meta_ephemeris_type": 0,
        "meta_classification_type": "U",
        "meta_norad_cat_id": 33980,
        "meta_element_set_no": 999,
        "meta_rev_at_epoch": 88947,
        "meta_bstar": 0.00056490698,
        "meta_mean_motion_dot": 2.621e-05,
        "meta_mean_motion_ddot": 0,
        "tle_line1": "1 33980U 93036FP  25357.19574193  .00002621  00000+0  56491-3 0  9993",
        "tle_line2": "2 33980  74.0206  39.4666 0028034 182.7708 234.3250 14.58706263889475"
      },
      "geometry": {
        "type": "Point",
        "coordinates": [
          -129.39778273736408,
          -36.20581979918139
        ]
      }
    },
    {
      "type": "Feature",
      "properties": {
        "norad_id": 33982,
        "name": "COSMOS 2251 DEB",
        "group": "cosmos-2251-debris",
        "lat": 43.49435548638157,
        "lon": 143.31983000884756,
        "alt_km": 709.4912130137955,
        "timestamp": "2025-12-23T16:57:12.748013+00:00",
        "meta_object_name": "COSMOS 2251 DEB",
        "meta_object_id": "1993-036FR",
        "meta_epoch": "2025-12-23T00:09:28.232064",
        "meta_mean_motion": 14.6025514,
        "meta_eccentricity": 0.00754145,
        "meta_inclination": 74.07,
        "meta_ra_of_asc_node": 340.3753,
        "meta_arg_of_pericenter": 21.9923,
        "meta_mean_anomaly": 34.0419,
        "meta_ephemeris_type": 0,
        "meta_classification_type": "U",
        "meta_norad_cat_id": 33982,
        "meta_element_set_no": 999,
        "meta_rev_at_epoch": 89309,
        "meta_bstar": 0.00047672534,
        "meta_mean_motion_dot": 2.364e-05,
        "meta_mean_motion_ddot": 0,
        "tle_line1": "1 33982U 93036FR  25357.00657676  .00002364  00000+0  47673-3 0  9999",
        "tle_line2": "2 33982  74.0700 340.3753 0075414  21.9923  34.0419 14.60255140893095"
      },
      "geometry": {
        "type": "Point",
        "coordinates": [
          143.31983000884756,
          43.49435548638157
        ]
      }
    },
    {
      "type": "Feature",
      "properties": {
        "norad_id": 33983,
        "name": "COSMOS 2251 DEB",
        "group": "cosmos-2251-debris",
        "lat": 46.48430909636069,
        "lon": 143.9787384870888,
        "alt_km": 733.9392843669175,
        "timestamp": "2025-12-23T16:57:12.748023+00:00",
        "meta_object_name": "COSMOS 2251 DEB",
        "meta_object_id": "1993-036FS",
        "meta_epoch": "2025-12-22T19:57:24.605856",
        "meta_mean_motion": 14.50709651,
        "meta_eccentricity": 0.00211807,
        "meta_inclination": 74.0495,
        "meta_ra_of_asc_node": 128.0909,
        "meta_arg_of_pericenter": 230.0994,
        "meta_mean_anomaly": 291.7759,
        "meta_ephemeris_type": 0,
        "meta_classification_type": "U",
        "meta_norad_cat_id": 33983,
        "meta_element_set_no": 999,
        "meta_rev_at_epoch": 88775,
        "meta_bstar": 0.00047436773,
        "meta_mean_motion_dot": 1.843e-05,
        "meta_mean_motion_ddot": 0,
        "tle_line1": "1 33983U 93036FS  25356.83153479  .00001843  00000+0  47437-3 0  9991",
        "tle_line2": "2 33983  74.0495 128.0909 0021180 230.0994 291.7759 14.50709651887758"
      },
      "geometry": {
        "type": "Point",
        "coordinates": [
          143.9787384870888,
          46.48430909636069
        ]
      }
    },
    {
      "type": "Feature",
      "properties": {
        "norad_id": 33984,
        "name": "COSMOS 2251 DEB",
        "group": "cosmos-2251-debris",
        "lat": 51.51508606437273,
        "lon": -12.933480905050667,
        "alt_km": 671.707825979026,
        "timestamp": "2025-12-23T16:57:12.748033+00:00",
        "meta_object_name": "COSMOS 2251 DEB",
        "meta_object_id": "1993-036FT",
        "meta_epoch": "2025-12-23T05:17:38.069664",
        "meta_mean_motion": 14.6644813,
        "meta_eccentricity": 0.00225325,
        "meta_inclination": 74.0097,
        "meta_ra_of_asc_node": 326.8615,
        "meta_arg_of_pericenter": 161.8874,
        "meta_mean_anomaly": 209.2605,
        "meta_ephemeris_type": 0,
        "meta_classification_type": "U",
        "meta_norad_cat_id": 33984,
        "meta_element_set_no": 999,
        "meta_rev_at_epoch": 89220,
        "meta_bstar": 0.0008605348,
        "meta_mean_motion_dot": 4.753e-05,
        "meta_mean_motion_ddot": 0,
        "tle_line1": "1 33984U 93036FT  25357.22057951  .00004753  00000+0  86053-3 0  9994",
        "tle_line2": "2 33984  74.0097 326.8615 0022532 161.8874 209.2605 14.66448130892208"
      },
      "geometry": {
        "type": "Point",
        "coordinates": [
          -12.933480905050667,
          51.51508606437273
        ]
      }
    }
  ]
}